NORAD_CAT_ID,OBJECT_NAME,OBJECT_TYPE,EPOCH,MEAN_MOTION,ECCENTRICITY,INCLINATION,RA_OF_ASC_NODE,ARG_OF_PERICENTER,MEAN_ANOMALY,BSTAR,MEAN_MOTION_DOT,MEAN_MOTION_DDOT,TLE_LINE0,TLE_LINE1,TLE_LINE2,SEMIMAJOR_AXIS,PERIOD,APOGEE,PERIGEE,DECAYED
53278.0,STARLINK-4180,PAYLOAD,2024-06-28 00:18:08,15.08840846,0.0001468,53.2163,85.9582,105.6909,254.4245,-3.2158e-05,-8e-06,0.0,0 STARLINK-4180,1 53278U 22086AN  24180.01259635 -.00000800  00000-0 -32158-4 0  9992,2 53278  53.2163  85.9582 0001468 105.6909 254.4245 15.08840846107641,6917.878,95.438,540.758,538.727,0.0
53278.0,STARLINK-4180,PAYLOAD,2024-06-28 20:58:09,15.08842843,0.0001582,53.2163,82.092,105.4332,254.6835,0.00014725,2.056e-05,0.0,0 STARLINK-4180,1 53278U 22086AN  24180.87371627  .00002056  00000-0  14725-3 0  9994,2 53278  53.2163  82.0920 0001582 105.4332 254.6835 15.08842843107602,6917.872,95.437,540.831,538.642,0.0
53278.0,STARLINK-4180,PAYLOAD,2024-06-28 22:33:32,15.08845229,0.0001528,53.2156,81.7946,80.5366,279.5799,0.00022336,3.269e-05,0.0,0 STARLINK-4180,1 53278U 22086AN  24180.93995710  .00003269  00000-0  22336-3 0  9990,2 53278  53.2156  81.7946 0001528  80.5366 279.5799 15.08845229107783,6917.864,95.437,540.786,538.672,0.0
53278.0,STARLINK-4180,PAYLOAD,2024-06-29 03:19:41,15.08860273,0.0001298,53.2147,80.903,92.2532,267.8609,0.00050574,7.774e-05,0.0,0 STARLINK-4180,1 53278U 22086AN  24181.13867057  .00007774  00000-0  50574-3 0  9995,2 53278  53.2147  80.9030 0001298  92.2532 267.8609 15.08860273107648,6917.818,95.436,540.581,538.785,0.0
53278.0,STARLINK-4180,PAYLOAD,2024-06-29 17:38:11,15.08816009,0.0001209,53.2162,78.2262,86.1785,273.9346,-0.0003724,-6.206e-05,0.0,0 STARLINK-4180,1 53278U 22086AN  24181.73484988 -.00006206  00000-0 -37240-3 0  9995,2 53278  53.2162  78.2262 0001209  86.1785 273.9346 15.08816009107730,6917.954,95.439,540.655,538.982,0.0
53278.0,STARLINK-4180,PAYLOAD,2024-06-29 22:24:20,15.08819761,0.0001388,53.2159,77.3341,99.0863,261.0287,-0.0002337,-4.003e-05,0.0,0 STARLINK-4180,1 53278U 22086AN  24181.93357109 -.00004003  00000-0 -23370-3 0  9993,2 53278  53.2159  77.3341 0001388  99.0863 261.0287 15.08819761107934,6917.942,95.439,540.767,538.847,0.0
53278.0,STARLINK-4180,PAYLOAD,2024-06-29 23:59:43,15.08823442,0.0001316,53.2159,77.0369,101.8583,258.2556,-0.00012666,-2.302e-05,0.0,0 STARLINK-4180,1 53278U 22086AN  24181.99981060 -.00002302  00000-0 -12666-3 0  9994,2 53278  53.2159  77.0369 0001316 101.8583 258.2556 15.08823442107773,6917.931,95.439,540.706,538.886,0.0
53278.0,STARLINK-4180,PAYLOAD,2024-06-30 20:39:44,15.08859267,0.0001267,53.2161,73.1727,112.7895,247.3231,0.0013016,0.00020499,0.0,0 STARLINK-4180,1 53278U 22086AN  24182.86092937  .00020499  00000-0  13016-2 0  9991,2 53278  53.2161  73.1727 0001267 112.7895 247.3231 15.08859267107901,6917.821,95.436,540.563,538.81,0.0
53278.0,STARLINK-4180,PAYLOAD,2024-06-30 22:15:07,15.08869151,0.000125,53.2161,72.8753,113.3027,246.8097,0.0016137,0.00025508,0.0,0 STARLINK-4180,1 53278U 22086AN  24182.92716757  .00025508  00000-0  16137-2 0  9994,2 53278  53.2161  72.8753 0001250 113.3027 246.8097 15.08869151108089,6917.791,95.436,540.521,538.792,0.0
53278.0,STARLINK-4180,PAYLOAD,2024-07-01 03:01:16,15.088849,0.000118,53.2162,71.9837,113.2773,246.8344,0.0017515,0.00027731,0.0,0 STARLINK-4180,1 53278U 22086AN  24183.12588168  .00027731  00000-0  17515-2 0  9991,2 53278  53.2162  71.9837 0001180 113.2773 246.8344 15.08884900107940,6917.743,95.435,540.424,538.792,0.0
53278.0,STARLINK-4180,PAYLOAD,2024-07-01 09:22:48,15.08873174,9.44e-05,53.2147,70.79,76.8918,283.218,0.0007683,0.00011972,0.0,0 STARLINK-4180,1 53278U 22086AN  24183.39083972  .00011972  00000-0  76830-3 0  9999,2 53278  53.2147  70.7900 0000944  76.8918 283.2180 15.08873174107981,6917.779,95.435,540.297,538.991,0.0
53278.0,STARLINK-4180,PAYLOAD,2024-07-01 20:30:30,15.08849278,0.0001745,53.2176,68.7178,110.7801,249.3379,-0.00016141,-2.857e-05,0.0,0 STARLINK-4180,1 53278U 22086AN  24183.85452210 -.00002857  00000-0 -16141-3 0  9998,2 53278  53.2176  68.7178 0001745 110.7801 249.3379 15.08849278108056,6917.852,95.437,540.924,538.51,0.0
53278.0,STARLINK-4180,PAYLOAD,2024-07-01 22:05:53,15.0884583,0.0001585,53.2181,68.4208,112.6654,247.4506,-0.00026822,-4.555e-05,0.0,0 STARLINK-4180,1 53278U 22086AN  24183.92076173 -.00004555  00000-0 -26822-3 0  9990,2 53278  53.2181  68.4208 0001585 112.6654 247.4506 15.08845830108233,6917.863,95.437,540.824,538.631,0.0
53278.0,STARLINK-4180,PAYLOAD,2024-07-02 09:13:36,15.08848311,0.0001477,53.215,66.3327,81.6665,278.4494,0.00089121,0.00013927,0.0,0 STARLINK-4180,1 53278U 22086AN  24184.38444446  .00013927  00000-0  89121-3 0  9995,2 53278  53.2150  66.3327 0001477  81.6665 278.4494 15.08848311108300,6917.855,95.437,540.742,538.698,0.0
53278.0,STARLINK-4180,PAYLOAD,2024-07-02 21:56:41,15.08843235,9.97e-05,53.2156,63.9546,82.8729,277.2376,0.00098553,0.00015433,0.0,0 STARLINK-4180,1 53278U 22086AN  24184.91436472  .00015433  00000-0  98553-3 0  9997,2 53278  53.2156  63.9546 0000997  82.8729 277.2376 15.08843235108386,6917.871,95.437,540.425,539.046,0.0
53278.0,STARLINK-4180,PAYLOAD,2024-07-03 01:07:27,15.08851445,0.0001266,53.2167,63.36,77.8758,282.2375,0.0006901,0.00010715,0.0,0 STARLINK-4180,1 53278U 22086AN  24185.04684388  .00010715  00000-0  69010-3 0  9997,2 53278  53.2167  63.3600 0001266  77.8758 282.2375 15.08851445108230,6917.845,95.437,540.586,538.835,0.0
53278.0,STARLINK-4180,PAYLOAD,2024-07-03 09:04:22,15.08844476,9.98e-05,53.216,61.8728,89.7808,270.3299,0.00046893,7.184e-05,0.0,0 STARLINK-4180,1 53278U 22086AN  24185.37804358  .00007184  00000-0  46893-3 0  9994,2 53278  53.2160  61.8728 0000998  89.7808 270.3299 15.08844476108280,6917.867,95.437,540.422,539.041,0.0
53278.0,STARLINK-4180,PAYLOAD,2024-07-03 20:12:05,15.08838936,0.0001131,53.2156,59.7904,97.82,262.292,0.00024024,3.538e-05,0.0,0 STARLINK-4180,1 53278U 22086AN  24185.84172556  .00003538  00000-0  24024-3 0  9995,2 53278  53.2156  59.7904 0001131  97.8200 262.2920 15.08838936108356,6917.884,95.438,540.531,538.966,0.0
53278.0,STARLINK-4180,PAYLOAD,2024-07-03 21:47:28,15.08842982,0.0001046,53.215,59.494,94.5616,265.5496,0.00030506,4.571e-05,0.0,0 STARLINK-4180,1 53278U 22086AN  24185.90796505  .00004571  00000-0  30506-3 0  9998,2 53278  53.2150  59.4940 0001046  94.5616 265.5496 15.08842982108537,6917.871,95.437,540.46,539.013,0.0
53278.0,STARLINK-4180,PAYLOAD,2024-07-04 15:16:42,15.08836176,0.0001065,53.2134,56.2228,87.508,272.6034,8.6802e-05,1.094e-05,0.0,0 STARLINK-4180,1 53278U 22086AN  24186.63660770  .00001094  00000-0  86802-4 0  9991,2 53278  53.2134  56.2228 0001065  87.5080 272.6034 15.08836176108648,6917.892,95.438,540.494,539.02,0.0
53278.0,STARLINK-4180,PAYLOAD,2024-07-04 21:38:15,15.08835207,0.0001,53.2142,55.0334,83.2431,276.8675,6.1626e-05,6.93e-06,0.0,0 STARLINK-4180,1 53278U 22086AN  24186.90156914  .00000693  00000-0  61626-4 0  9992,2 53278  53.2142  55.0334 0001000  83.2431 276.8675 15.08835207108511,6917.895,95.438,540.452,539.068,0.0
53278.0,STARLINK-4180,PAYLOAD,2024-07-05 08:45:57,15.08840459,0.0001219,53.2158,52.9503,91.5496,268.5636,0.00010352,1.36e-05,0.0,0 STARLINK-4180,1 53278U 22086AN  24187.36524734  .00001360  00000-0  10352-3 0  9993,2 53278  53.2158  52.9503 0001219  91.5496 268.5636 15.08840459108753,6917.879,95.438,540.587,538.901,0.0
53278.0,STARLINK-4180,PAYLOAD,2024-07-05 21:29:02,15.08844617,0.0001472,53.2169,50.5694,95.3983,264.7177,0.00015877,2.24e-05,0.0,0 STARLINK-4180,1 53278U 22086AN  24187.89516646  .00002240  00000-0  15877-3 0  9999,2 53278  53.2169  50.5694 0001472  95.3983 264.7177 15.08844617108831,6917.866,95.437,540.75,538.713,0.0
53278.0,STARLINK-4180,PAYLOAD,2024-07-06 21:19:49,15.08834907,0.0001253,53.2163,46.1105,88.7437,271.3698,7.4163e-06,-1.7e-06,0.0,0 STARLINK-4180,1 53278U 22086AN  24188.88877147 -.00000170  00000-0  74163-5 0  9991,2 53278  53.2163  46.1105 0001253  88.7437 271.3698 15.08834907108811,6917.896,95.438,540.628,538.894,0.0
53278.0,STARLINK-4180,PAYLOAD,2024-07-07 19:35:13,15.08841974,0.0001283,53.2168,41.9504,91.2803,268.8336,8.283e-05,1.031e-05,0.0,0 STARLINK-4180,1 53278U 22086AN  24189.81612948  .00001031  00000-0  82830-4 0  9996,2 53278  53.2168  41.9504 0001283  91.2803 268.8336 15.08841974108958,6917.874,95.437,540.627,538.852,0.0
53278.0,STARLINK-4180,PAYLOAD,2024-07-08 06:42:55,15.08841496,0.0001308,53.2173,39.8671,88.4638,271.6504,6.7457e-05,7.86e-06,0.0,0 STARLINK-4180,1 53278U 22086AN  24190.27980952  .00000786  00000-0  67457-4 0  9995,2 53278  53.2173  39.8671 0001308  88.4638 271.6504 15.08841496109192,6917.876,95.437,540.646,538.836,0.0
53278.0,STARLINK-4180,PAYLOAD,2024-07-08 21:01:23,15.08841554,0.0001315,53.2178,37.1944,101.5617,258.5523,0.00010391,1.366e-05,0.0,0 STARLINK-4180,1 53278U 22086AN  24190.87596941  .00001366  00000-0  10391-3 0  9991,2 53278  53.2178  37.1944 0001315 101.5617 258.5523 15.08841554109115,6917.876,95.437,540.65,538.831,0.0
53278.0,STARLINK-4180,PAYLOAD,2024-07-08 22:36:46,15.08844954,0.0001385,53.2183,36.8961,97.1502,262.9647,0.00012739,1.74e-05,0.0,0 STARLINK-4180,1 53278U 22086AN  24190.94220797  .00001740  00000-0  12739-3 0  9996,2 53278  53.2183  36.8961 0001385  97.1502 262.9647 15.08844954109298,6917.865,95.437,540.688,538.772,0.0
53278.0,STARLINK-4180,PAYLOAD,2024-07-09 12:55:12,15.08875426,8.19e-05,53.2182,34.2188,96.2765,263.832,0.00047996,7.366e-05,0.0,0 STARLINK-4180,1 53278U 22086AN  24191.53834482  .00007366  00000-0  47996-3 0  9997,2 53278  53.2182  34.2188 0000819  96.2765 263.8320 15.08875426109210,6917.772,95.435,540.204,539.071,0.0
53278.0,STARLINK-4180,PAYLOAD,2024-07-09 20:52:09,15.08832928,0.0001067,53.216,32.7332,112.5499,247.5606,-0.000412,-6.837e-05,0.0,0 STARLINK-4180,1 53278U 22086AN  24191.86955564 -.00006837  00000-0 -41200-3 0  9994,2 53278  53.2160  32.7332 0001067 112.5499 247.5606 15.08832928109263,6917.902,95.438,540.505,539.029,0.0
